NORAD_CAT_ID,OBJECT_NAME,OBJECT_TYPE,EPOCH,MEAN_MOTION,ECCENTRICITY,INCLINATION,RA_OF_ASC_NODE,ARG_OF_PERICENTER,MEAN_ANOMALY,BSTAR,MEAN_MOTION_DOT,MEAN_MOTION_DDOT,TLE_LINE0,TLE_LINE1,TLE_LINE2,SEMIMAJOR_AXIS,PERIOD,APOGEE,PERIGEE,DECAYED
51877.0,STARLINK-3556,PAYLOAD,2024-05-03 19:14:48,15.08839374,0.0001266,53.214,148.8088,86.8889,273.2248,3.1002e-05,2.06e-06,0.0,0 STARLINK-3556,1 51877U 22022AB  24124.80195594  .00000206  00000-0  31002-4 0  9998,2 51877  53.2140 148.8088 0001266  86.8889 273.2248 15.08839374121363,6917.882,95.438,540.623,538.871,0.0
51877.0,STARLINK-3556,PAYLOAD,2024-05-04 04:47:08,15.08831188,0.0001604,53.2153,147.023,95.2269,264.8906,-9.8753e-05,-1.859e-05,0.0,0 STARLINK-3556,1 51877U 22022AB  24125.19940229 -.00001859  00000-0 -98753-4 0  9997,2 51877  53.2153 147.0230 0001604  95.2269 264.8906 15.08831188121428,6917.907,95.438,540.882,538.663,0.0
51877.0,STARLINK-3556,PAYLOAD,2024-05-04 11:08:41,15.08827637,0.0001278,53.2151,145.8343,93.8995,266.2144,-0.00010852,-2.014e-05,0.0,0 STARLINK-3556,1 51877U 22022AB  24125.46437082 -.00002014  00000-0 -10852-3 0  9992,2 51877  53.2151 145.8343 0001278  93.8995 266.2144 15.08827637121462,6917.918,95.438,540.667,538.899,0.0
51877.0,STARLINK-3556,PAYLOAD,2024-05-05 10:59:28,15.08833045,0.0001471,53.2169,141.3734,99.6648,260.451,-6.9822e-05,-1.399e-05,0.0,0 STARLINK-3556,1 51877U 22022AB  24126.45797290 -.00001399  00000-0 -69822-4 0  9999,2 51877  53.2169 141.3734 0001471  99.6648 260.4510 15.08833045121610,6917.902,95.438,540.784,538.749,0.0
51877.0,STARLINK-3556,PAYLOAD,2024-05-06 07:39:29,15.08832156,0.0001329,53.2161,137.5091,79.1147,280.9994,0.000203,2.944e-05,0.0,0 STARLINK-3556,1 51877U 22022AB  24127.31909328  .00002944  00000-0  20300-3 0  9994,2 51877  53.2161 137.5091 0001329  79.1147 280.9994 15.08832156121743,6917.904,95.438,540.689,538.85,0.0
51877.0,STARLINK-3556,PAYLOAD,2024-05-06 17:11:49,15.08824673,0.0001332,53.2157,135.725,74.4414,285.6725,9.4365e-05,1.214e-05,0.0,0 STARLINK-3556,1 51877U 22022AB  24127.71654514  .00001214  00000-0  94365-4 0  9994,2 51877  53.2157 135.7250 0001332  74.4414 285.6725 15.08824673121800,6917.927,95.439,540.714,538.871,0.0
51877.0,STARLINK-3556,PAYLOAD,2024-05-07 04:19:31,15.08835534,0.0001292,53.2157,133.6431,71.7498,288.3635,9.753e-05,1.264e-05,0.0,0 STARLINK-3556,1 51877U 22022AB  24128.18022221  .00001264  00000-0  97530-4 0  9992,2 51877  53.2157 133.6431 0001292  71.7498 288.3635 15.08835534121870,6917.894,95.438,540.653,538.865,0.0
51877.0,STARLINK-3556,PAYLOAD,2024-05-07 07:30:17,15.08835559,0.0001296,53.2163,133.0483,76.0699,284.0437,0.00012011,1.624e-05,0.0,0 STARLINK-3556,1 51877U 22022AB  24128.31270224  .00001624  00000-0  12011-3 0  9995,2 51877  53.2163 133.0483 0001296  76.0699 284.0437 15.08835559121895,6917.894,95.438,540.656,538.862,0.0
51877.0,STARLINK-3556,PAYLOAD,2024-05-07 17:02:36,15.08837795,0.0001238,53.2168,131.2649,73.2988,286.814,9.5658e-05,1.235e-05,0.0,0 STARLINK-3556,1 51877U 22022AB  24128.71014271  .00001235  00000-0  95658-4 0  9994,2 51877  53.2168 131.2649 0001238  73.2988 286.8140 15.08837795121952,6917.887,95.438,540.609,538.896,0.0
51877.0,STARLINK-3556,PAYLOAD,2024-05-08 08:56:27,15.08848933,0.0001171,53.216,128.2902,73.6102,286.5019,0.00013005,1.783e-05,0.0,0 STARLINK-3556,1 51877U 22022AB  24129.37253540  .00001783  00000-0  13005-3 0  9994,2 51877  53.2160 128.2902 0001171  73.6102 286.5019 15.08848933122050,6917.853,95.437,540.528,538.908,0.0
51877.0,STARLINK-3556,PAYLOAD,2024-05-08 16:53:22,15.08854718,0.0001172,53.2162,126.8035,75.1309,284.9813,0.00015853,2.237e-05,0.0,0 STARLINK-3556,1 51877U 22022AB  24129.70372995  .00002237  00000-0  15853-3 0  9995,2 51877  53.2162 126.8035 0001172  75.1309 284.9813 15.08854718122108,6917.835,95.437,540.511,538.89,0.0
51877.0,STARLINK-3556,PAYLOAD,2024-05-09 08:47:13,15.08865953,0.0001081,53.2145,123.8289,70.8616,289.2493,0.00042471,6.483e-05,0.0,0 STARLINK-3556,1 51877U 22022AB  24130.36612285  .00006483  00000-0  42471-3 0  9991,2 51877  53.2145 123.8289 0001081  70.8616 289.2493 15.08865953122205,6917.801,95.436,540.414,538.918,0.0
51877.0,STARLINK-3556,PAYLOAD,2024-05-09 16:44:08,15.08855563,0.000103,53.2149,122.3405,76.267,283.8436,0.00011547,1.551e-05,0.0,0 STARLINK-3556,1 51877U 22022AB  24130.69732241  .00001551  00000-0  11547-3 0  9993,2 51877  53.2149 122.3405 0001030  76.2670 283.8436 15.08855563122255,6917.833,95.437,540.41,538.985,0.0
51877.0,STARLINK-3556,PAYLOAD,2024-05-10 07:02:36,15.0885167,0.0001047,53.2146,119.6632,82.2884,277.8227,5.1231e-05,5.28e-06,0.0,0 STARLINK-3556,1 51877U 22022AB  24131.29348086  .00000528  00000-0  51231-4 0  9998,2 51877  53.2146 119.6632 0001047  82.2884 277.8227 15.08851670122341,6917.845,95.437,540.434,538.985,0.0
51877.0,STARLINK-3556,PAYLOAD,2024-05-10 22:56:28,15.08851799,0.0001094,53.2163,116.6925,79.2858,280.8257,0.00014336,1.995e-05,0.0,0 STARLINK-3556,1 51877U 22022AB  24131.95588026  .00001995  00000-0  14336-3 0  9994,2 51877  53.2163 116.6925 0001094  79.2858 280.8257 15.08851799122441,6917.844,95.437,540.466,538.953,0.0
51877.0,STARLINK-3556,PAYLOAD,2024-05-11 08:28:45,15.08884842,0.000129,53.2166,114.9058,106.4602,253.6532,0.00088802,0.0001389,0.0,0 STARLINK-3556,1 51877U 22022AB  24132.35330685  .00013890  00000-0  88802-3 0  9991,2 51877  53.2166 114.9058 0001290 106.4602 253.6532 15.08884842122506,6917.743,95.435,540.501,538.716,0.0
51877.0,STARLINK-3556,PAYLOAD,2024-05-11 16:25:41,15.08865369,0.0001047,53.2165,113.4192,115.7205,244.3895,0.00051631,7.944e-05,0.0,0 STARLINK-3556,1 51877U 22022AB  24132.68450734  .00007944  00000-0  51631-3 0  9998,2 51877  53.2165 113.4192 0001047 115.7205 244.3895 15.08865369122557,6917.803,95.436,540.392,538.944,0.0
51877.0,STARLINK-3556,PAYLOAD,2024-05-12 05:08:48,15.08774662,0.000127,53.2155,111.0441,83.0117,277.1019,-0.0020133,-0.0003213,0.0,0 STARLINK-3556,1 51877U 22022AB  24133.21445276 -.00032130  00000-0 -20133-2 0  9992,2 51877  53.2155 111.0441 0001270  83.0117 277.1019 15.08774662122630,6918.08,95.442,540.824,539.067,0.0
51877.0,STARLINK-3556,PAYLOAD,2024-05-12 08:19:35,15.08772346,0.0001179,53.2155,110.4494,76.6596,283.4527,-0.0014693,-0.00023552,0.0,0 STARLINK-3556,1 51877U 22022AB  24133.34694356 -.00023552  00000-0 -14693-2 0  9993,2 51877  53.2155 110.4494 0001179  76.6596 283.4527 15.08772346122651,6918.087,95.442,540.768,539.137,0.0
51877.0,STARLINK-3556,PAYLOAD,2024-05-13 04:59:37,15.08823416,0.0001106,53.2163,106.5797,100.1252,259.9864,0.00042218,6.435e-05,0.0,0 STARLINK-3556,1 51877U 22022AB  24134.20807167  .00006435  00000-0  42218-3 0  9999,2 51877  53.2163 106.5797 0001106 100.1252 259.9864 15.08823416122785,6917.931,95.439,540.561,539.031,0.0
51877.0,STARLINK-3556,PAYLOAD,2024-05-13 22:28:52,15.08831822,0.0001084,53.2162,103.3102,93.5884,266.5232,0.0006099,9.43e-05,0.0,0 STARLINK-3556,1 51877U 22022AB  24134.93671809  .00009430  00000-0  60990-3 0  9996,2 51877  53.2162 103.3102 0001084  93.5884 266.5232 15.08831822122895,6917.905,95.438,540.52,539.02,0.0
51877.0,STARLINK-3556,PAYLOAD,2024-05-14 04:50:25,15.08834228,0.0001149,53.2162,102.1222,83.6328,276.4795,0.00098702,0.00015453,0.0,0 STARLINK-3556,1 51877U 22022AB  24135.20168127  .00015453  00000-0  98702-3 0  9995,2 51877  53.2162 102.1222 0001149  83.6328 276.4795 15.08834228122932,6917.898,95.438,540.558,538.968,0.0
51877.0,STARLINK-3556,PAYLOAD,2024-05-14 14:22:43,15.08849741,0.0001169,53.2164,100.3379,83.872,276.2405,0.00077925,0.00012139,0.0,0 STARLINK-3556,1 51877U 22022AB  24135.59911453  .00012139  00000-0  77925-3 0  9997,2 51877  53.2164 100.3379 0001169  83.8720 276.2405 15.08849741122995,6917.851,95.437,540.524,538.907,0.0
51877.0,STARLINK-3556,PAYLOAD,2024-05-15 04:41:09,15.08889525,0.0001052,53.2158,97.6613,85.2914,274.8198,0.0009404,0.0001473,0.0,0 STARLINK-3556,1 51877U 22022AB  24136.19525078  .00014730  00000-0  94040-3 0  9994,2 51877  53.2158  97.6613 0001052  85.2914 274.8198 15.08889525123087,6917.729,95.434,540.322,538.866,0.0
51877.0,STARLINK-3556,PAYLOAD,2024-05-15 20:35:00,15.08867736,0.0001331,53.2154,94.6858,71.6961,288.4176,0.00027946,4.166e-05,0.0,0 STARLINK-3556,1 51877U 22022AB  24136.85764666  .00004166  00000-0  27946-3 0  9998,2 51877  53.2154  94.6858 0001331  71.6961 288.4176 15.08867736123180,6917.796,95.436,540.581,538.74,0.0
51877.0,STARLINK-3556,PAYLOAD,2024-05-16 14:04:14,15.08858308,0.0001135,53.2156,91.4146,93.5921,266.5201,0.00099858,0.00015648,0.0,0 STARLINK-3556,1 51877U 22022AB  24137.58628098  .00015648  00000-0  99858-3 0  9995,2 51877  53.2156  91.4146 0001135  93.5921 266.5201 15.08858308123291,6917.824,95.436,540.475,538.904,0.0
51877.0,STARLINK-3556,PAYLOAD,2024-05-16 20:25:47,15.08836502,0.0001036,53.2158,90.2263,104.1115,255.9993,0.00045709,6.994e-05,0.0,0 STARLINK-3556,1 51877U 22022AB  24137.85124555  .00006994  00000-0  45709-3 0  9994,2 51877  53.2158  90.2263 0001036 104.1115 255.9993 15.08836502123331,6917.891,95.438,540.473,539.039,0.0
51877.0,STARLINK-3556,PAYLOAD,2024-05-17 04:22:43,15.08852183,0.0001326,53.2154,88.7405,98.4751,261.6391,0.0010548,0.00016545,0.0,0 STARLINK-3556,1 51877U 22022AB  24138.18244486  .00016545  00000-0  10548-2 0  9992,2 51877  53.2154  88.7405 0001326  98.4751 261.6391 15.08852183123384,6917.843,95.437,540.625,538.791,0.0
51877.0,STARLINK-3556,PAYLOAD,2024-05-17 13:55:02,15.08840132,0.000138,53.2157,86.9552,87.608,272.507,0.00085705,0.00013378,0.0,0 STARLINK-3556,1 51877U 22022AB  24138.57988979  .00013378  00000-0  85705-3 0  9996,2 51877  53.2157  86.9552 0001380  87.6080 272.5070 15.08840132123448,6917.88,95.438,540.7,538.79,0.0
51877.0,STARLINK-3556,PAYLOAD,2024-05-18 02:38:07,15.08836555,7.86e-05,53.2152,84.5753,104.291,255.8169,0.00035111,5.304e-05,0.0,0 STARLINK-3556,1 51877U 22022AB  24139.10981023  .00005304  00000-0  35111-3 0  9995,2 51877  53.2152  84.5753 0000786 104.2910 255.8169 15.08836555123523,6917.891,95.438,540.3,539.212,0.0
